IRIDIUM 57 [-]          
1 25273U 98019B   24034.37175603  .00000504  00000+0  16997-3 0  9994
2 25273  86.3995 354.5722 0002179  87.8397 272.3048 14.35066947353293
IRIDIUM 63 [-]          
1 25286U 98021B   24033.74841136  .00000458  00000+0  15237-3 0  9996
2 25286  86.3980 291.7670 0002313  89.6576 270.4886 14.35590661352028
IRIDIUM 69 [-]          
1 25319U 98026A   24034.28204676  .00000611  00000+0  18854-3 0  9999
2 25319  86.3999 306.3329 0001389 163.6493 196.4751 14.39784068351344
IRIDIUM 71 [-]          
1 25320U 98026B   24034.17314956  .00000487  00000+0  14827-3 0  9999
2 25320  86.3985 301.1724 0001049  13.6756 346.4471 14.40104055351858
IRIDIUM 73 [-]          
1 25344U 98032C   24033.66718219  .00000596  00000+0  14778-3 0  9991
2 25344  86.4388 259.0026 0001593 101.5733 258.5650 14.50271944357989
IRIDIUM 82 [-]          
1 25467U 98051A   24033.92182091  .00018039  00000+0  99286-3 0  9998
2 25467  86.3950 349.6530 0138431 357.3643   2.6845 15.05987917348101
IRIDIUM 2 [-]           
1 25527U 98066A   24034.48559195  .00048136  00000+0  76473-3 0  9990
2 25527  85.5140  29.3842 0007852 106.8106 253.4015 15.53108735386339
